1 01749U 07001001 10129.81944444  .00025632  00000-0  14377-3 0 00000
2 01749 051.6311 131.6013 0011295 313.0548 214.5236 15.78428335000466
1 01749U 07001001 10130.81944444  .00025628  00000-0  14346-3 0 00002
2 01749 051.6313 126.4307 0011274 316.8227 137.0388 15.78474300000626
1 01749U 07001001 10132.81944444  .00025558  00000-0  14246-3 0 00005
2 01749 051.6320 116.0889 0011269 324.3019 342.6214 15.78567491000931
1 19883U 89021B   10127.53280179 -.00000278  00000-0  10000-3 0  8031
2 19883  11.2033  48.0864 0008144 350.5154 332.3737  1.00264692249969
1 01749U 07001001 10127.62847222  .01600147  00000-0  57464-3 0 00008
2 01749 051.6341 143.1707 0022881 336.9358 220.5173 16.23325285000113
1 19883U 89021B   10128.14752514 -.00000276  00000-0  10000-3 0  8045
2 19883  11.2045  48.0827 0008114 351.1982 193.5853  1.00264506249975
1 01749U 07001001 10131.81944444  .00025596  00000-0  14298-3 0 00003
2 01749 051.6316 121.2599 0011270 320.6194 059.6900 15.78520683000789
1 20061U 89044A   10127.29381306  .00000085  00000-0  00000-0 0 08381
2 20061 053.5110 225.4250 0203897 239.4161 118.6458 02.00556171081000
1 01749U 07001001 10128.71180556  .00534269  00000-0  29170-2 0 00001
2 01749 051.6331 137.3307 0009867 311.6116 037.6915 15.79049986000284
1 01749U 07001001 10128.64583333  .00141968  00000-0  72277-3 0 00000
2 01749 051.6324 137.6725 0003143 278.4013 055.2755 15.80664318000271
1 01749U 07001001 10128.05208333  .00010086  00000-0  14486-4 0 00004
2 01749 051.6315 140.8358 0075603 137.5593 016.0097 15.99028155000184
1 01749U 07001001 10133.81944444  .00024909  00000-0  13855-3 0 00000
2 01749 051.6322 110.9176 0011257 327.9653 265.7390 15.78615217001093
1 24836U 97030A   10128.31548396  .00000120  00000-0  33397-4 0  4244
2 24836  86.3933  54.8202 0003169 106.7463 253.4077 14.37450836652747
1 01749U 07001001 10127.01388889  .00544663  00000-0  67371-4 0 00008
2 01749 051.6341 146.5958 0056421 343.1155 204.8188 16.29995728000011
1 01749U 07001001 10128.75694444 -.03323249  00000-0 -18674-1 0 00006
2 01749 051.6331 137.0959 0010650 306.9123 299.1585 15.78609082000298
1 19883U 89021B   10128.75146116 -.00000275  00000-0  10000-3 0  8046
2 19883  11.2058  48.0736 0008163 351.4272  51.3606  1.00264303249980
1 24836U 97030A   10127.75859016  .00000126  00000-0  35525-4 0  4235
2 24836  86.3933  55.0543 0003144 107.8010 252.3536 14.37450810652662
1 24836U 97030A   10127.34091976  .00000127  00000-0  35922-4 0  4224
2 24836  86.3931  55.2298 0003107 108.2181 251.9355 14.37450708652606
1 01749U 07001001 10128.81944444  .00025443  00000-0  14301-3 0 00006
2 01749 051.6311 136.7716 0011302 309.3647 292.0942 15.78382871000301
1 01749U 07001001 10134.81944444  .00015847  00000-0  87982-4 0 00005
2 01749 051.6324 105.7458 0011186 331.7479 188.9040 15.78669186001250
1 24836U 97030A   10128.73315443  .00000114  00000-0  31350-4 0  4256
2 24836  86.3935  54.6447 0003206 106.5981 253.5572 14.37450883652803
1 01749U 07001001 10127.65277778  .00091740  00000-0  34930-4 0 00000
2 01749 051.6314 143.0376 0023091 330.2998 009.2500 16.22620081000112
